LAPAN-TUBSAT            
1 29709U 07001A   26185.62747286  .00001052  00000+0  12691-3 0  9998
2 29709  98.1344 185.2453 0013284 124.8165 235.4302 14.85969404 53749
LANDSAT 8               
1 39084U 13008A   26185.60427120  .00000486  00000+0  11793-3 0  9991
2 39084  98.2295 255.5321 0001354  93.7576 266.3777 14.57107282700433
KOMPSAT-3A              
1 40536U 15014A   26185.62322543  .00043597  00000+0  60591-3 0  9999
2 40536  97.6890 178.2709 0057084 112.7038 248.0264 15.54917083624527
KENT RIDGE 1            
1 41167U 15077B   26185.51661961  .00005003  00000+0  17347-3 0  9998
2 41167  14.9787 137.0946 0008149 124.0300 236.0797 15.23237331583740
LAPAN-A3                
1 41603U 16040E   26185.61749406  .00005832  00000+0  18382-3 0  9996
2 41603  97.1497 181.1919 0008733 321.7541  38.3081 15.33225973557489
LANDSAT 9               
1 49260U 21088A   26185.43267672  .00000410  00000+0  10112-3 0  9991
2 49260  98.2274 255.4009 0001167  88.6853 271.4479 14.57109516253512
LEGION 1                
1 59625U 24081A   26185.18220862  .00004447  00000+0  22971-3 0  9995
2 59625  97.5010 262.8586 0008014 315.2129  44.8456 15.16784699120116
LEGION 2                
1 59626U 24081B   26185.47632024  .00004756  00000+0  24547-3 0  9999
2 59626  97.5011 263.2468 0009838 276.0808  83.9304 15.16766847120161
LEGION 3                
1 60452U 24146A   26185.59314234  .00006055  00000+0  32660-3 0  9992
2 60452  45.0023 297.2135 0008876 279.2220  80.7654 15.15606298104665
LEGION 4                
1 60453U 24146B   26185.59497979  .00006687  00000+0  35331-3 0  9990
2 60453  45.0023  29.0966 0011709  45.8597 314.3243 15.16181116103513
