{
 "generated_at": "2026-07-05T07:57:19Z",
 "sources": [
  {
   "name": "CelesTrak",
   "url": "https://celestrak.org/NORAD/elements/",
   "license": "frei verfügbar; Attribution. Ursprünglich USSPACECOM/Space-Track."
  },
  {
   "name": "GCAT (J. McDowell, planet4589.org)",
   "url": "https://planet4589.org/space/gcat/",
   "license": "CC-BY 4.0"
  }
 ],
 "satellites": [
  {
   "norad": 41167,
   "name": "KENT RIDGE 1",
   "intl": "2015-077B",
   "group": "resource",
   "gcat": {
    "class": null,
    "category": null,
    "owner": null,
    "state": null
   },
   "omm": {
    "OBJECT_NAME": "KENT RIDGE 1",
    "OBJECT_ID": "2015-077B",
    "EPOCH": "2026-07-04T12:23:55.934304",
    "MEAN_MOTION": 15.23237331,
    "ECCENTRICITY": 0.00081499,
    "INCLINATION": 14.9787,
    "RA_OF_ASC_NODE": 137.0946,
    "ARG_OF_PERICENTER": 124.03,
    "MEAN_ANOMALY": 236.0797,
    "EPHEMERIS_TYPE": 0,
    "CLASSIFICATION_TYPE": "U",
    "NORAD_CAT_ID": 41167,
    "ELEMENT_SET_NO": 999,
    "REV_AT_EPOCH": 58374,
    "BSTAR": 0.00017346651,
    "MEAN_MOTION_DOT": 0.00005003,
    "MEAN_MOTION_DDOT": 0
   }
  },
  {
   "norad": 40536,
   "name": "KOMPSAT-3A",
   "intl": "2015-014A",
   "group": "resource",
   "gcat": {
    "class": "C",
    "category": "IMG",
    "owner": "KARI",
    "state": "KR"
   },
   "omm": {
    "OBJECT_NAME": "KOMPSAT-3A",
    "OBJECT_ID": "2015-014A",
    "EPOCH": "2026-07-04T14:57:26.677152",
    "MEAN_MOTION": 15.54917083,
    "ECCENTRICITY": 0.00570849,
    "INCLINATION": 97.689,
    "RA_OF_ASC_NODE": 178.2709,
    "ARG_OF_PERICENTER": 112.7038,
    "MEAN_ANOMALY": 248.0264,
    "EPHEMERIS_TYPE": 0,
    "CLASSIFICATION_TYPE": "U",
    "NORAD_CAT_ID": 40536,
    "ELEMENT_SET_NO": 999,
    "REV_AT_EPOCH": 62452,
    "BSTAR": 0.00060590942,
    "MEAN_MOTION_DOT": 0.00043597,
    "MEAN_MOTION_DDOT": 0
   }
  },
  {
   "norad": 39084,
   "name": "LANDSAT 8",
   "intl": "2013-008A",
   "group": "resource",
   "gcat": {
    "class": "C",
    "category": "IMG",
    "owner": "USGS",
    "state": "US"
   },
   "omm": {
    "OBJECT_NAME": "LANDSAT 8",
    "OBJECT_ID": "2013-008A",
    "EPOCH": "2026-07-04T14:30:09.031680",
    "MEAN_MOTION": 14.57107282,
    "ECCENTRICITY": 0.00013543,
    "INCLINATION": 98.2295,
    "RA_OF_ASC_NODE": 255.5321,
    "ARG_OF_PERICENTER": 93.7576,
    "MEAN_ANOMALY": 266.3777,
    "EPHEMERIS_TYPE": 0,
    "CLASSIFICATION_TYPE": "U",
    "NORAD_CAT_ID": 39084,
    "ELEMENT_SET_NO": 999,
    "REV_AT_EPOCH": 70043,
    "BSTAR": 0.00011792692,
    "MEAN_MOTION_DOT": 0.00000486,
    "MEAN_MOTION_DDOT": 0
   }
  },
  {
   "norad": 49260,
   "name": "LANDSAT 9",
   "intl": "2021-088A",
   "group": "resource",
   "gcat": {
    "class": "C",
    "category": "IMG",
    "owner": "USGS/GSFC",
    "state": "US"
   },
   "omm": {
    "OBJECT_NAME": "LANDSAT 9",
    "OBJECT_ID": "2021-088A",
    "EPOCH": "2026-07-04T10:23:03.268608",
    "MEAN_MOTION": 14.57109516,
    "ECCENTRICITY": 0.00011673,
    "INCLINATION": 98.2274,
    "RA_OF_ASC_NODE": 255.4009,
    "ARG_OF_PERICENTER": 88.6853,
    "MEAN_ANOMALY": 271.4479,
    "EPHEMERIS_TYPE": 0,
    "CLASSIFICATION_TYPE": "U",
    "NORAD_CAT_ID": 49260,
    "ELEMENT_SET_NO": 999,
    "REV_AT_EPOCH": 25351,
    "BSTAR": 0.00010112164,
    "MEAN_MOTION_DOT": 0.0000041,
    "MEAN_MOTION_DDOT": 0
   }
  },
  {
   "norad": 41603,
   "name": "LAPAN-A3",
   "intl": "2016-040E",
   "group": "resource",
   "gcat": {
    "class": "C",
    "category": "IMG",
    "owner": "LAPAN",
    "state": "ID"
   },
   "omm": {
    "OBJECT_NAME": "LAPAN-A3",
    "OBJECT_ID": "2016-040E",
    "EPOCH": "2026-07-04T14:49:11.486784",
    "MEAN_MOTION": 15.33225973,
    "ECCENTRICITY": 0.00087335,
    "INCLINATION": 97.1497,
    "RA_OF_ASC_NODE": 181.1919,
    "ARG_OF_PERICENTER": 321.7541,
    "MEAN_ANOMALY": 38.3081,
    "EPHEMERIS_TYPE": 0,
    "CLASSIFICATION_TYPE": "U",
    "NORAD_CAT_ID": 41603,
    "ELEMENT_SET_NO": 999,
    "REV_AT_EPOCH": 55748,
    "BSTAR": 0.00018382177,
    "MEAN_MOTION_DOT": 0.00005832,
    "MEAN_MOTION_DDOT": 0
   }
  },
  {
   "norad": 29709,
   "name": "LAPAN-TUBSAT",
   "intl": "2007-001A",
   "group": "resource",
   "gcat": {
    "class": null,
    "category": null,
    "owner": null,
    "state": null
   },
   "omm": {
    "OBJECT_NAME": "LAPAN-TUBSAT",
    "OBJECT_ID": "2007-001A",
    "EPOCH": "2026-07-04T15:03:33.655104",
    "MEAN_MOTION": 14.85969404,
    "ECCENTRICITY": 0.00132847,
    "INCLINATION": 98.1344,
    "RA_OF_ASC_NODE": 185.2453,
    "ARG_OF_PERICENTER": 124.8165,
    "MEAN_ANOMALY": 235.4302,
    "EPHEMERIS_TYPE": 0,
    "CLASSIFICATION_TYPE": "U",
    "NORAD_CAT_ID": 29709,
    "ELEMENT_SET_NO": 999,
    "REV_AT_EPOCH": 5374,
    "BSTAR": 0.00012691443,
    "MEAN_MOTION_DOT": 0.00001052,
    "MEAN_MOTION_DDOT": 0
   }
  },
  {
   "norad": 59625,
   "name": "LEGION 1",
   "intl": "2024-081A",
   "group": "resource",
   "gcat": {
    "class": "B",
    "category": "IMG",
    "owner": "MAXARI",
    "state": "US"
   },
   "omm": {
    "OBJECT_NAME": "LEGION 1",
    "OBJECT_ID": "2024-081A",
    "EPOCH": "2026-07-04T04:22:22.824768",
    "MEAN_MOTION": 15.16784699,
    "ECCENTRICITY": 0.00080141,
    "INCLINATION": 97.501,
    "RA_OF_ASC_NODE": 262.8586,
    "ARG_OF_PERICENTER": 315.2129,
    "MEAN_ANOMALY": 44.8456,
    "EPHEMERIS_TYPE": 0,
    "CLASSIFICATION_TYPE": "U",
    "NORAD_CAT_ID": 59625,
    "ELEMENT_SET_NO": 999,
    "REV_AT_EPOCH": 12011,
    "BSTAR": 0.00022970719,
    "MEAN_MOTION_DOT": 0.00004447,
    "MEAN_MOTION_DDOT": 0
   }
  },
  {
   "norad": 59626,
   "name": "LEGION 2",
   "intl": "2024-081B",
   "group": "resource",
   "gcat": {
    "class": "B",
    "category": "IMG",
    "owner": "MAXARI",
    "state": "US"
   },
   "omm": {
    "OBJECT_NAME": "LEGION 2",
    "OBJECT_ID": "2024-081B",
    "EPOCH": "2026-07-04T11:25:54.068736",
    "MEAN_MOTION": 15.16766847,
    "ECCENTRICITY": 0.00098387,
    "INCLINATION": 97.5011,
    "RA_OF_ASC_NODE": 263.2468,
    "ARG_OF_PERICENTER": 276.0808,
    "MEAN_ANOMALY": 83.9304,
    "EPHEMERIS_TYPE": 0,
    "CLASSIFICATION_TYPE": "U",
    "NORAD_CAT_ID": 59626,
    "ELEMENT_SET_NO": 999,
    "REV_AT_EPOCH": 12016,
    "BSTAR": 0.00024547293,
    "MEAN_MOTION_DOT": 0.00004756,
    "MEAN_MOTION_DDOT": 0
   }
  },
  {
   "norad": 60452,
   "name": "LEGION 3",
   "intl": "2024-146A",
   "group": "resource",
   "gcat": {
    "class": "B",
    "category": "IMG",
    "owner": "MAXARI",
    "state": "US"
   },
   "omm": {
    "OBJECT_NAME": "LEGION 3",
    "OBJECT_ID": "2024-146A",
    "EPOCH": "2026-07-04T14:14:07.498176",
    "MEAN_MOTION": 15.15606298,
    "ECCENTRICITY": 0.00088762,
    "INCLINATION": 45.0023,
    "RA_OF_ASC_NODE": 297.2135,
    "ARG_OF_PERICENTER": 279.222,
    "MEAN_ANOMALY": 80.7654,
    "EPHEMERIS_TYPE": 0,
    "CLASSIFICATION_TYPE": "U",
    "NORAD_CAT_ID": 60452,
    "ELEMENT_SET_NO": 999,
    "REV_AT_EPOCH": 10466,
    "BSTAR": 0.000326605,
    "MEAN_MOTION_DOT": 0.00006055,
    "MEAN_MOTION_DDOT": 0
   }
  },
  {
   "norad": 60453,
   "name": "LEGION 4",
   "intl": "2024-146B",
   "group": "resource",
   "gcat": {
    "class": "B",
    "category": "IMG",
    "owner": "MAXARI",
    "state": "US"
   },
   "omm": {
    "OBJECT_NAME": "LEGION 4",
    "OBJECT_ID": "2024-146B",
    "EPOCH": "2026-07-04T14:16:46.253856",
    "MEAN_MOTION": 15.16181116,
    "ECCENTRICITY": 0.00117096,
    "INCLINATION": 45.0023,
    "RA_OF_ASC_NODE": 29.0966,
    "ARG_OF_PERICENTER": 45.8597,
    "MEAN_ANOMALY": 314.3243,
    "EPHEMERIS_TYPE": 0,
    "CLASSIFICATION_TYPE": "U",
    "NORAD_CAT_ID": 60453,
    "ELEMENT_SET_NO": 999,
    "REV_AT_EPOCH": 10351,
    "BSTAR": 0.00035331499,
    "MEAN_MOTION_DOT": 0.00006687,
    "MEAN_MOTION_DDOT": 0
   }
  }
 ]
}
